ASTROCAST-0401          
1 55110U 23001DF  26068.71172895  .00009750  00000+0  37868-3 0  9995
2 55110  97.5547 160.5206 0008142 188.4231 171.6872 15.26258462176022
STARLINK-33739          
1 63572U 25076D   26068.40930617  .00021372  00000+0  78345-3 0  9999
2 63572  43.0046 323.6207 0002133 272.8873  87.1735 15.27599048 51783
